NORAD_CAT_ID,OBJECT_NAME,OBJECT_TYPE,EPOCH,MEAN_MOTION,ECCENTRICITY,INCLINATION,RA_OF_ASC_NODE,ARG_OF_PERICENTER,MEAN_ANOMALY,BSTAR,MEAN_MOTION_DOT,MEAN_MOTION_DDOT,TLE_LINE0,TLE_LINE1,TLE_LINE2,SEMIMAJOR_AXIS,PERIOD,APOGEE,PERIGEE,DECAYED
53592.0,STARLINK-4672,PAYLOAD,2023-03-16 18:33:47,15.08835481,0.0001331,53.2172,92.5867,91.2308,268.8836,0.00049704,7.63e-05,0.0,0 STARLINK-4672,1 53592U 22104E   23075.77346475  .00007630  00000-0  49704-3 0  9996,2 53592  53.2172  92.5867 0001331  91.2308 268.8836 15.08835481 30539,6917.894,95.438,540.68,538.838,0.0
53592.0,STARLINK-4672,PAYLOAD,2023-03-17 00:55:20,15.0882871,0.0001119,53.2171,91.3978,96.5297,263.5823,0.00044897,6.863e-05,0.0,0 STARLINK-4672,1 53592U 22104E   23076.03842784  .00006863  00000-0  44897-3 0  9995,2 53592  53.2171  91.3978 0001119  96.5297 263.5823 15.08828710 30576,6917.915,95.438,540.554,539.006,0.0
53592.0,STARLINK-4672,PAYLOAD,2023-03-17 12:03:02,15.08840048,0.0001268,53.2168,89.3167,87.8982,272.2155,0.0012832,0.00020193,0.0,0 STARLINK-4672,1 53592U 22104E   23076.50211070  .00020193  00000-0  12832-2 0  9990,2 53592  53.2168  89.3167 0001268  87.8982 272.2155 15.08840048 31662,6917.88,95.438,540.622,538.868,0.0
53592.0,STARLINK-4672,PAYLOAD,2023-03-17 18:24:34,15.08844122,0.000143,53.2171,88.1274,84.379,275.7365,0.0010035,0.00015721,0.0,0 STARLINK-4672,1 53592U 22104E   23076.76707159  .00015721  00000-0  10035-2 0  9990,2 53592  53.2171  88.1274 0001430  84.3790 275.7365 15.08844122 31705,6917.868,95.437,540.722,538.744,0.0
53592.0,STARLINK-4672,PAYLOAD,2023-03-18 11:53:48,15.08866803,0.0001401,53.217,84.8553,92.6759,267.4393,0.0010095,0.00015826,0.0,0 STARLINK-4672,1 53592U 22104E   23077.49570337  .00015826  00000-0  10095-2 0  9999,2 53592  53.2170  84.8553 0001401  92.6759 267.4393 15.08866803 30799,6917.798,95.436,540.633,538.694,0.0
53592.0,STARLINK-4672,PAYLOAD,2023-03-19 05:23:03,15.0884591,0.0001318,53.217,81.5843,103.9283,256.1855,0.00027187,4.042e-05,0.0,0 STARLINK-4672,1 53592U 22104E   23078.22434612  .00004042  00000-0  27187-3 0  9995,2 53592  53.2170  81.5843 0001318 103.9283 256.1855 15.08845910 30907,6917.862,95.437,540.639,538.816,0.0
53592.0,STARLINK-4672,PAYLOAD,2023-03-19 10:09:12,15.08851392,0.000125,53.2172,80.6925,98.7232,261.3902,0.00060914,9.423e-05,0.0,0 STARLINK-4672,1 53592U 22104E   23078.42306550  .00009423  00000-0  60914-3 0  9999,2 53592  53.2172  80.6925 0001250  98.7232 261.3902 15.08851392 31958,6917.846,95.437,540.575,538.846,0.0
53592.0,STARLINK-4672,PAYLOAD,2023-03-19 16:30:45,15.08837286,0.0001464,53.2178,79.5022,87.4071,272.7088,0.00033203,5e-05,0.0,0 STARLINK-4672,1 53592U 22104E   23078.68802780  .00005000  00000-0  33203-3 0  9991,2 53592  53.2178  79.5022 0001464  87.4071 272.7088 15.08837286 30970,6917.889,95.438,540.766,538.741,0.0
53592.0,STARLINK-4672,PAYLOAD,2023-03-20 09:59:59,15.08848662,0.0001307,53.2175,76.233,107.1901,252.9234,0.0002997,4.486e-05,0.0,0 STARLINK-4672,1 53592U 22104E   23079.41666595  .00004486  00000-0  29970-3 0  9998,2 53592  53.2175  76.2330 0001307 107.1901 252.9234 15.08848662 32101,6917.854,95.437,540.623,538.815,0.0
53592.0,STARLINK-4672,PAYLOAD,2023-03-20 16:21:32,15.08840749,0.0001243,53.2163,75.0429,104.2778,255.8352,0.00020169,2.924e-05,0.0,0 STARLINK-4672,1 53592U 22104E   23079.68162804  .00002924  00000-0  20169-3 0  9997,2 53592  53.2163  75.0429 0001243 104.2778 255.8352 15.08840749 32148,6917.878,95.438,540.603,538.883,0.0
53592.0,STARLINK-4672,PAYLOAD,2023-03-21 06:40:01,15.08839324,0.0001244,53.2188,72.3677,105.8357,254.2772,6.868e-05,8.05e-06,0.0,0 STARLINK-4672,1 53592U 22104E   23080.27779225  .00000805  00000-0  68680-4 0  9992,2 53592  53.2188  72.3677 0001244 105.8357 254.2772 15.08839324 31214,6917.882,95.438,540.608,538.887,0.0
53592.0,STARLINK-4672,PAYLOAD,2023-03-21 08:15:24,15.08838546,0.0001253,53.2192,72.0704,109.2353,250.8775,8.8376e-05,1.119e-05,0.0,0 STARLINK-4672,1 53592U 22104E   23080.34403218  .00001119  00000-0  88376-4 0  9999,2 53592  53.2192  72.0704 0001253 109.2353 250.8775 15.08838546 32245,6917.885,95.438,540.617,538.883,0.0
53592.0,STARLINK-4672,PAYLOAD,2023-03-22 04:55:26,15.08831703,0.0001284,53.2196,68.2053,113.3688,246.7439,8.3489e-06,-1.55e-06,0.0,0 STARLINK-4672,1 53592U 22104E   23081.20516289 -.00000155  00000-0  83489-5 0  9999,2 53592  53.2196  68.2053 0001284 113.3688 246.7439 15.08831703 31354,6917.906,95.438,540.659,538.882,0.0
53592.0,STARLINK-4672,PAYLOAD,2023-03-22 16:03:07,15.0884425,0.0001078,53.2188,66.1224,101.989,258.1223,4.3248e-05,4.01e-06,0.0,0 STARLINK-4672,1 53592U 22104E   23081.66883449  .00000401  00000-0  43248-4 0  9995,2 53592  53.2188  66.1224 0001078 101.9890 258.1223 15.08844250 31428,6917.867,95.437,540.478,538.987,0.0
53592.0,STARLINK-4672,PAYLOAD,2023-03-23 07:56:58,15.08853932,0.0001087,53.2179,63.1477,101.4367,258.6747,0.00029198,4.364e-05,0.0,0 STARLINK-4672,1 53592U 22104E   23082.33122924  .00004364  00000-0  29198-3 0  9993,2 53592  53.2179  63.1477 0001087 101.4367 258.6747 15.08853932 32546,6917.838,95.437,540.455,538.951,0.0
53592.0,STARLINK-4672,PAYLOAD,2023-03-23 15:53:54,15.08842106,0.0001237,53.2186,61.6615,86.6329,273.4805,0.00014946,2.092e-05,0.0,0 STARLINK-4672,1 53592U 22104E   23082.66243599  .00002092  00000-0  14946-3 0  9992,2 53592  53.2186  61.6615 0001237  86.6329 273.4805 15.08842106 32596,6917.874,95.437,540.595,538.883,0.0
53592.0,STARLINK-4672,PAYLOAD,2023-03-24 04:36:58,15.08863995,0.0001104,53.2178,59.2832,97.7903,262.3215,0.0004477,6.849e-05,0.0,0 STARLINK-4672,1 53592U 22104E   23083.19234671  .00006849  00000-0  44770-3 0  9994,2 53592  53.2178  59.2832 0001104  97.7903 262.3215 15.08863995 31652,6917.807,95.436,540.436,538.908,0.0
53592.0,STARLINK-4672,PAYLOAD,2023-03-24 07:47:44,15.08884045,9.94e-05,53.2181,58.6881,87.2237,272.8869,0.00075128,0.00011703,0.0,0 STARLINK-4672,1 53592U 22104E   23083.32481664  .00011703  00000-0  75128-3 0  9991,2 53592  53.2181  58.6881 0000994  87.2237 272.8869 15.08884045 31675,6917.746,95.435,540.298,538.923,0.0
53592.0,STARLINK-4672,PAYLOAD,2023-03-24 15:44:40,15.0885449,9.17e-05,53.2181,57.2019,89.6204,270.4893,0.00020943,3.048e-05,0.0,0 STARLINK-4672,1 53592U 22104E   23083.65602546  .00003048  00000-0  20943-3 0  9999,2 53592  53.2181  57.2019 0000917  89.6204 270.4893 15.08854490 31726,6917.836,95.437,540.335,539.067,0.0
53592.0,STARLINK-4672,PAYLOAD,2023-03-25 04:27:45,15.08844635,0.000129,53.2175,54.8226,94.245,265.8689,-1.4802e-05,-5.23e-06,0.0,0 STARLINK-4672,1 53592U 22104E   23084.18594883 -.00000523  00000-0 -14802-4 0  9997,2 53592  53.2175  54.8226 0001290  94.2450 265.8689 15.08844635 31802,6917.866,95.437,540.624,538.839,0.0
53592.0,STARLINK-4672,PAYLOAD,2023-03-25 21:57:01,15.08831734,0.0001367,53.2176,51.5537,81.7272,278.3875,-5.803e-05,-1.211e-05,0.0,0 STARLINK-4672,1 53592U 22104E   23084.91459551 -.00001211  00000-0 -58030-4 0  9996,2 53592  53.2176  51.5537 0001367  81.7272 278.3875 15.08831734 32937,6917.906,95.438,540.716,538.825,0.0
53592.0,STARLINK-4672,PAYLOAD,2023-03-26 04:18:33,15.08837353,0.0001341,53.2185,50.3637,81.7763,278.3382,6.4613e-05,7.4e-06,0.0,0 STARLINK-4672,1 53592U 22104E   23085.17955553  .00000740  00000-0  64613-4 0  9996,2 53592  53.2185  50.3637 0001341  81.7763 278.3382 15.08837353 31959,6917.888,95.438,540.681,538.826,0.0
53592.0,STARLINK-4672,PAYLOAD,2023-03-26 07:29:19,15.08839411,0.0001409,53.2177,49.768,83.3342,276.781,0.00019595,2.832e-05,0.0,0 STARLINK-4672,1 53592U 22104E   23085.31203601  .00002832  00000-0  19595-3 0  9994,2 53592  53.2177  49.7680 0001409  83.3342 276.7810 15.08839411 32996,6917.882,95.438,540.722,538.772,0.0
53592.0,STARLINK-4672,PAYLOAD,2023-03-27 07:20:07,15.08853278,0.0001495,53.2174,45.3078,92.2862,267.8302,0.00083297,0.00012998,0.0,0 STARLINK-4672,1 53592U 22104E   23086.30563687  .00012998  00000-0  83297-3 0  9991,2 53592  53.2174  45.3078 0001495  92.2862 267.8302 15.08853278 32126,6917.84,95.437,540.739,538.671,0.0
53592.0,STARLINK-4672,PAYLOAD,2023-03-27 21:38:35,15.08842897,0.0001453,53.2167,42.6308,99.0302,261.0854,0.00015835,2.233e-05,0.0,0 STARLINK-4672,1 53592U 22104E   23086.90179826  .00002233  00000-0  15835-3 0  9999,2 53592  53.2167  42.6308 0001453  99.0302 261.0854 15.08842897 32215,6917.872,95.437,540.742,538.731,0.0
53592.0,STARLINK-4672,PAYLOAD,2023-03-28 07:10:53,15.08861894,0.0001311,53.2177,40.8478,106.5957,253.5179,0.00096246,0.00015072,0.0,0 STARLINK-4672,1 53592U 22104E   23087.29923348  .00015072  00000-0  96246-3 0  9998,2 53592  53.2177  40.8478 0001311 106.5957 253.5179 15.08861894 32277,6917.813,95.436,540.585,538.772,0.0
53592.0,STARLINK-4672,PAYLOAD,2023-03-28 21:29:22,15.08850088,0.0001389,53.2173,38.1717,104.3168,255.7978,0.00079047,0.00012318,0.0,0 STARLINK-4672,1 53592U 22104E   23087.89539561  .00012318  00000-0  79047-3 0  9994,2 53592  53.2173  38.1717 0001389 104.3168 255.7978 15.08850088 32368,6917.85,95.437,540.675,538.754,0.0
53592.0,STARLINK-4672,PAYLOAD,2023-03-29 07:01:40,15.08859616,0.0001181,53.2167,36.3874,101.2839,258.8286,0.0007621,0.00011868,0.0,0 STARLINK-4672,1 53592U 22104E   23088.29283217  .00011868  00000-0  76210-3 0  9991,2 53592  53.2167  36.3874 0001181 101.2839 258.8286 15.08859616 33448,6917.82,95.436,540.502,538.868,0.0
53592.0,STARLINK-4672,PAYLOAD,2023-03-30 05:17:05,15.08841601,0.0001459,53.217,32.222,88.662,271.4539,0.00044861,6.859e-05,0.0,0 STARLINK-4672,1 53592U 22104E   23089.22019962  .00006859  00000-0  44861-3 0  9990,2 53592  53.2170  32.2220 0001459  88.6620 271.4539 15.08841601 32565,6917.875,95.437,540.75,538.731,0.0
53592.0,STARLINK-4672,PAYLOAD,2023-03-30 13:14:01,15.08837865,0.0001303,53.2171,30.7378,86.682,273.4321,0.00043547,6.649e-05,0.0,0 STARLINK-4672,1 53592U 22104E   23089.55140171  .00006649  00000-0  43547-3 0  9990,2 53592  53.2171  30.7378 0001303  86.6820 273.4321 15.08837865 32615,6917.887,95.438,540.653,538.851,0.0
